Nom,address_raw,formatted_address,lat,lng,non_dangereux,dangereux,amiantes
Decheterie de Monistrol sur Loire,Decheterie de Monistrol sur Loire les Cheminches  Monistrol-sur-Loire 43120,"Les Cheminches, 43120 Monistrol-sur-Loire, France",45.2678349,4.1846442,True,True,False
Decheterie de Pierrefort,Decheterie de Pierrefort Rue de Salzet  Pierrefort 15230,"Rue de Salzet, 15230 Pierrefort, France",44.9224128,2.8387099,True,True,False
Decheterie de Pionsat,Decheterie de Pionsat les Fayes  Pionsat 63330,"Les Fayes, 63330 Pionsat, France",46.108807,2.700687,True,True,False
Decheterie de Saint Flour,Decheterie de Saint Flour les Cramades Zi de la Florizane Saint-Flour 15100,"Zone Industrielle la Florizane & Les Cramades, 15100 Saint-Flour, France",45.049331,3.100755,True,True,False
Decheterie de Saint Gervais d'Auvergne,Decheterie de Saint Gervais d'Auvergne Saint-Gervais-D'Auvergne  Saint-Gervais-d'Auvergne 63390,"63390 Saint-Gervais-d'Auvergne, France",46.02952699999999,2.821046,True,True,False
Decheterie de Saugues,Decheterie de Saugues Lieu dit Védrines  Saugues 43170,"Védrines, 43170 Thoras, France",44.8429054,3.5497092,True,True,False
Decheterie de St Pal de Chalencon,Decheterie de St Pal de Chalencon Trespeyres  Saint-Pal-de-Chalencon 43500,"Trespeyres, 43500 Saint-Pal-de-Chalencon, France",45.35115099999999,3.991981,True,True,False
Decheterie de St Paulien,Decheterie de St Paulien Za de Nolhac  Saint-Paulien 43350,"ZA de Nolhac, 43350 Saint-Paulien, France",45.1070082,3.8122148,True,True,False
Decheterie de Thiers,Decheterie de Thiers Matussière  Thiers 63300,"Chem. de Matussière, 63300 Thiers, France",45.8352407,3.5139884,True,True,False
Decheterie de la Chaise-dieu,Decheterie de la Chaise-dieu Route du Stade  La Chaise-Dieu 43160,"Rue du Stade, 43160 La Chaise-Dieu, France",45.3148038,3.6970032,True,True,False
Déchetterie Intercommunale de Boëge,Déchetterie Intercommunale de Boëge 645 Rte de la Crosse Lieu Dit Fellières Boëge 74420,"645 Rte de la Crosse, 74420 Boëge, France",46.1997271,6.3962834,True,True,False
Déchèterie Alba-la-romaine,Déchèterie Alba-la-romaine les Barrières Quartier les Barrières Alba-la-Romaine 07400,"Les Barrières, 07400 Alba-la-Romaine, France",44.5458341,4.591243,True,True,False
Déchèterie Alboussiere,Déchèterie Alboussiere Mini Déchèterie Rd 219 Alboussière 07440,"Unnamed Road, 07440 Alboussière, France",44.9465361,4.7365211,False,False,True
Déchèterie Allemond,Déchèterie Allemond Allemond  Allemond 38114,"Plan d'Allemont, 38114 Allemont, France",45.126169,6.039525,True,True,True
Déchèterie Allinges,Déchèterie Allinges la Praux  / Macheron Chemin des Etangs - Lieu-Dit Mâcheron Allinges 74200,"Macheron, 74200 Allinges, France",46.3292,6.47408,True,True,False
Déchèterie Amberieu-en-Bugey,Déchèterie Amberieu-en-Bugey les Gremodieres les Gremodières# Ambérieu-en-Bugey 01500,"Route d'Ambérieu D77E, 01500 Ambérieu-en-Bugey, France",45.975581,5.331945,False,False,True
Déchèterie Ampuis,Déchèterie Ampuis le Vérenay Z.A du Vérenay - Rue du Stade - Rn86 Ampuis 69420,"1680 Imp. du Stade, 69420 Ampuis, France",45.5030088,4.8361029,True,True,False
Déchèterie Andancette,Déchèterie Andancette Andancette Za les Payots Andancette 26140,"9 Les Payots, 26140 Andancette, France",45.2461271,4.8124308,False,False,True
Déchèterie Anse,Déchèterie Anse l'Arrêt / Pré Corlus Avenue de Lossburg Anse 69480,"Av. de Lossburg, 69480 Anse, France",45.9391283,4.7207137,True,True,False
Déchèterie Aouste-sur-sye,Déchèterie Aouste-sur-sye Milassol Rue du 19 Mars 1962 Aouste-sur-Sye 26400,"Rue du 19 Mars 1962, 26400 Aouste-sur-Sye, France",44.714219,5.050143,True,True,False
Déchèterie Apprieu,Déchèterie Apprieu la Contamine Za Bièvre Dauphiné Apprieu 38140,"Rue de la Contamine, 38140 Apprieu, France",45.3940887,5.4719996,True,True,False
Déchèterie Araches,Déchèterie Araches Atelier Municipal Route du Bry Arâches-la-Frasse 74300,"Route du Bry, 74300 Arâches-la-Frasse, France",46.017186,6.634481999999999,True,True,False
Déchèterie Arthun,Déchèterie Arthun la Presle  Arthun 42130,"42130 Arthun, France",45.7535441,4.026278,True,True,True
Déchèterie Autrans,Déchèterie Autrans les Mornets Za des Mornets Autrans* 38880,"85 Au Mornet, 38880 Autrans, France",45.16373979999999,5.533195,True,True,False
Déchèterie Avoriaz,Déchèterie Avoriaz Déchèterie d'Avoriaz Zone Technique Morzine 74110,"Rte d'Avoriaz, 74110 Morzine, France",46.192951,6.737876,True,True,False
Déchèterie Ayse,"Déchèterie Ayse 780, Avenue du Môle  Ayse 74130","780 Av. du Môle, 74130 Ayse, France",46.0750173,6.4569322,True,True,True
Déchèterie Bathie (la ),Déchèterie Bathie (la ) Langon 201 Rue des Grumes La Bâthie 73540,"201 Rue des Grumes, 73540 La Bathie, France",45.6044896,6.4459973,True,True,False
Déchèterie Beaucroissant,Déchèterie Beaucroissant les Blaches  Beaucroissant 38140,"Chem. des Blaches, 38140 Beaucroissant, France",45.34981800000001,5.4720577,True,True,False
Déchèterie Beaufort,Déchèterie Beaufort la Pierre Lieu-Dit les Glières - Plaine de la Pierre Beaufort 73270,"Glières Plateau, 74130 Glières-Val-de-Borne, France",45.959827,6.34023,True,True,False
Déchèterie Beaufort-sur-gervanne,Déchèterie Beaufort-sur-gervanne Déch de la Vallée de Gervanne Route Départementale 70 Beaufort-sur-Gervanne 26400,"26400 Beaufort-sur-Gervanne, France",44.7761489,5.143056,True,True,False
Déchèterie Beaulieu,Déchèterie Beaulieu Champfarnel Usine Broyage des Om    Beaulieu Beaulieu 07460,"07460 Beaulieu, France",44.3757567,4.254842,False,False,True
Déchèterie Belley,Déchèterie Belley Carrefour Jean Monnet  Belley 01300,"ZAC de l'Ousson, 01300 Belley, France",45.756252,5.7042351,True,True,False
Déchèterie Bernex,Déchèterie Bernex Déchetterie de Bernex Champ de Foire Chef Lieu Bernex 74500,"354 CR dit de la Fruitière, 74500 Bernex, France",46.358041,6.6803722,True,True,False
Déchèterie Biol,Déchèterie Biol Route de Belmont Route de Belmont Biol 38690,"Rte de Belmont, 38690 Biol, France",45.4856376,5.3819756,True,True,False
Déchèterie Biot (le ),Déchèterie Biot (le ) Route des Grandes Alpes Za la Vignette Le Biot 74430,"Rte des Grandes Alpes, 74430 La Baume, France",46.1936486,6.6859013,True,True,False
Déchèterie Bons-en-chablais,Déchèterie Bons-en-chablais Zi des Bracots  Bons-en-Chablais 74890,"Rue des Bracots, 74890 Bons-en-Chablais, France",46.274553,6.3502539,True,True,False
Déchèterie Bonvillaret,"Déchèterie Bonvillaret le Chaix Lieu Dit ""la Folesse"" Bonvillaret 73220","D72, 73220 Bonvillaret, France",45.5582228,6.2905175,True,True,True
Déchèterie Bourdeaux,Déchèterie Bourdeaux Déchetterie le Village Bourdeaux 26460,"26460 Bourdeaux, France",44.58491,5.133122,True,True,False
Déchèterie Bourg-Saint-Maurice,Déchèterie Bourg-Saint-Maurice Déchetterie Rue de Pinon Bourg-Saint-Maurice 73700,"523 Rue de Pinon, 73700 Bourg-Saint-Maurice, France",45.6082433,6.7695308,True,True,True
Déchèterie Bourg-d'Oisans (le ),Déchèterie Bourg-d'Oisans (le ) le Fond des Roches Za le Fond des Roches Le Bourg-d'Oisans 38520,"ZA Fonds des Roches, Chem. du Fond des Roches, 38520 Le Bourg-d'Oisans, France",45.0657196,6.0217833,True,True,True
Déchèterie Bourg-en-Bresse,Déchèterie Bourg-en-Bresse Cenord Rue Gutenberg Bourg-en-Bresse 01000,"3 Av. Arsène d'Arsonval, 01000 Bourg-en-Bresse, France",46.2134813,5.219859599999999,False,False,True
Déchèterie Bourg-les-Valence,Déchèterie Bourg-les-Valence Dechetterie Marcerolles Rue Aristide Bergès Bourg-lès-Valence 26500,"Rue Aristide Berges, 26500 Bourg-lès-Valence, France",44.9630005,4.882714099999999,False,False,True
Déchèterie Bourg-saint-maurice - les Arcs 1800,Déchèterie Bourg-saint-maurice - les Arcs 1800 les Arcs Route de la Croisette les Arcs 1800 Bourg-Saint-Maurice 73700,"Arc 1800, 73700 Bourg-Saint-Maurice, France",45.575104,6.7795,True,True,False
Déchèterie Bourget-du-Lac (le ),Déchèterie Bourget-du-Lac (le ) le Bourget-du-Lac Z.A. de la Plaisse Le Bourget-du-Lac 73370,"639 Chem. de la Plaisse, 73370 Le Bourget-du-Lac, France",45.6386602,5.8588531,False,False,True
Déchèterie Bourgoin-Jallieu,"Déchèterie Bourgoin-Jallieu Champ Fleuri Zi, 1 Rue du Pont Rouge Bourgoin-Jallieu 38300","1 Rue du Pont Rouge, 38300 Bourgoin-Jallieu, France",45.5960122,5.259524499999999,True,True,False
Déchèterie Buis-les-Baronnies,Déchèterie Buis-les-Baronnies Aubagne  Buis-les-Baronnies 26170,"Aubagne, 26170 Buis-les-Baronnies, France",44.255137,5.262028,True,True,False
Déchèterie Caluire-et-Cuire,Déchèterie Caluire-et-Cuire Caluire-et-Cuire 62 Impasse des Lièvres Caluire-et-Cuire 69300,"62 Imp. des Lièvres, 69300 Caluire-et-Cuire, France",45.803498,4.8651618,True,True,False
Déchèterie Chabons,Déchèterie Chabons Chabons le Liers Châbons 38690,"Rte du Liers, 38690 Châbons, France",45.4272208,5.4030485,True,True,False
Déchèterie Chalamont,Déchèterie Chalamont le Petit Moulin  Chalamont 01320,"Le Petit Moulin, 01320 Chalamont, France",45.99277110000001,5.1807751,True,True,False
Déchèterie Chambery - Bissy,Déchèterie Chambery - Bissy Bissy 57 Rue du Pré Demaison Chambéry 73000,"57 Rue du Pré Demaison, 73000 Chambéry, France",45.5885048,5.8977007,False,False,True
Déchèterie Chamoux-sur-Gelon,Déchèterie Chamoux-sur-Gelon Déchetterie Z.A. de la Grande Bellavarde Chamoux-sur-Gelon 73390,"73390 Chamoux-sur-Gelon, France",45.5396607,6.2068297,True,True,False
Déchèterie Champagne-au-Mont-d'Or,Déchèterie Champagne-au-Mont-d'Or Champagne-au-Mont-d'Or Impasse des Anciennes Vignes Champagne-au-Mont-d'Or 69410,"Imp. des Anciennes Vignes, 69410 Champagne-au-Mont-d'Or, France",45.802206,4.774171,True,True,False
Déchèterie Champanges,Déchèterie Champanges Za de Darbon  Champanges 74500,"74500 Champanges, France",46.3772521,6.557372699999999,True,True,False
Déchèterie Charvieu-chavagneux,Déchèterie Charvieu-chavagneux le Plan Lieu Dit le Plan Charvieu-Chavagneux 38230,"Lieudit ""Le Plan, 38230 Charvieu-Chavagneux, France",45.7211908,5.1474689,True,True,False
Déchèterie Chasse-sur-Rhone,Déchèterie Chasse-sur-Rhone Route de Communay 236 Route de Communay Chasse-sur-Rhône 38670,"236 Rte de Communay, 38670 Chasse-sur-Rhône, France",45.584577,4.803167,True,True,False
Déchèterie Chateauneuf-de-Galaure,Déchèterie Chateauneuf-de-Galaure Dechetterie des Metelles Quartier les Metelles Châteauneuf-de-Galaure 26330,"Route de Roman, Les Metellet, 26330 Châteauneuf-de-Galaure, France",45.2265836,4.962617799999999,False,False,True
Déchèterie Chateauvilain,Déchèterie Chateauvilain Quermonin Quermonin Châteauvilain 38300,"Rue du Ctre, 38300 Châteauvilain, France",45.5026761,5.3202197,True,True,False
Déchèterie Chatelard (le ),Déchèterie Chatelard (le ) Leyat Rd 206 Le Châtelard 73630,"73630 Le Châtelard, France",45.6735213,6.138353,True,True,True
Déchèterie Chazay-d'azergues,Déchèterie Chazay-d'azergues les Petites Culattes Route de Saint Antoine Chazay-d'Azergues 69380,"Rte de Saint-Antoine, 69380 Chazay-d'Azergues, France",45.8855076,4.7193888,True,True,False
Déchèterie Chazelles-sur-lyon,Déchèterie Chazelles-sur-lyon le Fond Rivaud  Chazelles-sur-Lyon 42140,"Fond Rivaud, 42140 Chazelles-sur-Lyon, France",45.63762699999999,4.401941,False,False,True
Déchèterie Chindrieux,Déchèterie Chindrieux le Praz le Praz Chindrieux 73310,"Rte de Vions, 73310 Chindrieux, France",45.8306665,5.838106499999999,False,False,True
Déchèterie Colombier-Saugnieu,Déchèterie Colombier-Saugnieu le Reverolle le Reverolle Colombier-Saugnieu 69124,"10 Chem. des Brosses, 69124 Colombier-Saugnieu, France",45.7206723,5.141339599999999,True,True,False
Déchèterie Cote-Saint-Andre (la ),Déchèterie Cote-Saint-Andre (la ) la Bièvre Chemin des Charpillates 38260#la Cote St André La Côte-Saint-André 38260,"38260 La Côte-Saint-André, France",45.393794,5.260022,True,True,False
Déchèterie Coublevie,Déchèterie Coublevie Route de Saint Jean Route de Saint Jean Coublevie 38500,"Rte de Saint-Jean, 38500 Coublevie, France",45.3498032,5.6002389,True,True,False
Déchèterie Courchevel - Plan du Vah,Déchèterie Courchevel - Plan du Vah Plan du Vah / St Bon Située Entre Courchevel 1650 et Courchevel 1850 Saint-Bon-Tarentaise* 73120,"Rte du Plan du Vah, 73120 Courchevel, France",45.4017231,6.6441566,True,True,False
Déchèterie Courchevel - le Carrey,Déchèterie Courchevel - le Carrey l'Ilaz / Carrey l'Ilaz Saint-Bon-Tarentaise* 73120,"Rte du Plan du Vah, 73120 Courchevel, France",45.4017231,6.6441566,True,True,True
Déchèterie Crest,Déchèterie Crest Déchetterie Pied Gay Rue Digue Pied Gay Crest 26400,"Quai Pied Gai, 26400 Crest, France",44.7298197,5.0067261,True,True,False
Déchèterie Croizet-sur-Gand,Déchèterie Croizet-sur-Gand Matard  Croizet-sur-Gand 42540,"Matard, Croizet-sur-Gand, France",45.9250604,4.2211499,True,True,False
Déchèterie Cruas,Déchèterie Cruas Déchetterie du Verseau Chemin de la Créma Cruas 07350,"La Charité, 07350 Cruas, France",44.64010090000001,4.762611199999999,True,True,False
Déchèterie Culoz,Déchèterie Culoz Parc d'Activite des Fours  Culoz 01350,"ZI en Brachay, Rue de Luyrieux, 01350 Culoz, France",45.8474041,5.7684905,True,True,False
Déchèterie Decines-Charpieu,Déchèterie Decines-Charpieu Decines-Charpieu 64/68 Rue P. et M. Barbezat Décines-Charpieu 69150,"68 Rue Paul Bert et M, 69150 Décines-Charpieu, France",45.7658192,4.9590054,True,True,False
Déchèterie Die,Déchèterie Die Dechetterie de Die Quartier Ruinel Die 26150,"Ruinel, 26150 Die, France",44.765227,5.3311529,True,True,False
Déchèterie Dieulefit,Déchèterie Dieulefit Graveyron Quartier Graveyron#dieulefit Dieulefit 26220,"quartier, 26220 Dieulefit, France",44.5274963,5.0338973,True,True,False
Déchèterie Dingy-Saint-Clair,Déchèterie Dingy-Saint-Clair Route de Provenat Provenat Dingy-Saint-Clair 74230,"Rte de Provenat, 74230 Dingy-Saint-Clair, France",45.9020568,6.2227146,True,True,False
Déchèterie Domessin,Déchèterie Domessin les Francais les Francais Domessin 73330,"Rte de Verel de Montbel, 73330 Domessin, France",45.5466942,5.714559599999999,True,True,False
Déchèterie Douvaine,Déchèterie Douvaine Artangy Avenue du Lac Douvaine 74140,"Av. du Lac, 74140 Douvaine, France",46.31111689999999,6.2858658,True,True,False
Déchèterie Drumettaz-Clarafond,Déchèterie Drumettaz-Clarafond Drumettaz Chemin du Martinet# Drumettaz-Clarafond 73420,"Chem. du Martinet, 73420 Drumettaz-Clarafond, France",45.6604722,5.9113205,False,False,True
Déchèterie Entre-deux-guiers,Déchèterie Entre-deux-guiers Zi Chartreuse - Guiers Zi Chartreuse Guiers Entre-deux-Guiers 38380,"186 Imp. de la Rosette, 38380 Entre-Deux-Guiers, France",45.4126853,5.745260699999999,True,True,True
Déchèterie Estivareilles,Déchèterie Estivareilles Lieu Dit Sagne Croze Déchèterie de Tortorel Estivareilles 42380,"Tortorel, 42380 Estivareilles, France",45.4302696,4.0401643,True,True,False
Déchèterie Etoile-sur-Rhone,Déchèterie Etoile-sur-Rhone Déchèterie Quartier St Marcellin 26800 Etoile sur Rhône Étoile-sur-Rhône 26800,"Saint-Marcellin, 26800 Étoile-sur-Rhône, France",44.8310648,4.9080287,False,False,True
Déchèterie Eurre,Déchèterie Eurre Quartier Brunelle Près de la Base Tgv Eurre 26400,"Brunelle, 26400 Eurre, France",44.738273,4.975049,False,False,True
Déchèterie Feillens,Déchèterie Feillens Feillens Route de Passant Feillens 01570,"Les Janssets Nord, Rte de Passant, 01570 Feillens, France",46.34570309999999,4.9022254,True,True,True
Déchèterie Feurs,Déchèterie Feurs Lieu Dit les Prévoriaux  Feurs 42110,"Lieu-dit Les Prévoriaux, 42110 Feurs, France",45.716445,4.2295733,False,False,True
Déchèterie Fillinges,Déchèterie Fillinges Pont Jacob 1665 Route du Chef Lieu Fillinges 74250,"Fillinges, Pont Jacob, 74250 Fillinges, France",46.154079,6.339913999999999,True,True,False
Déchèterie Fitilieu,Déchèterie Fitilieu Tapon  Fitilieu* 38490,"874-1354 Rte de Tapon, 38490 Les Abrets en Dauphiné, France",45.55586479999999,5.5447658,True,True,False
Déchèterie Fleurieux-sur-l'arbresle,Déchèterie Fleurieux-sur-l'arbresle Lieu Dit Sous la Roche le Buvetroute Nationale 7 Fleurieux-sur-l'Arbresle 69210,"1699 Rte de Lyon 919, 69210 Fleurieux-sur-l'Arbresle, France",45.8351923,4.6628858,False,False,True
Déchèterie Fontcouverte-la Toussuire,Déchèterie Fontcouverte-la Toussuire Fontcouverte-Villarembert au Plan des Chaumes Fontcouverte-la-Toussuire 73300,"Fontcouverte, 73300 Fontcouverte-la-Toussuire, France",45.246706,6.303184,True,True,True
Déchèterie Francheleins,Déchèterie Francheleins Route de Saint Trivier Rd 27 - Cesseins Francheleins 01090,"Rte de Saint-Trivier, 01090 Francheleins, France",46.0738165,4.8301225,True,True,False
Déchèterie Francheville,Déchèterie Francheville Francheville 29 Route de la Gare Francheville 69340,"29 Rte de la Gare, 69340 Francheville, France",45.7290522,4.7715673,True,True,False
Déchèterie Frangy,Déchèterie Frangy Champagne Route de Biolle Frangy 74270,"D310, 74270 Frangy, France",46.0173373,5.9130395,True,True,False
Déchèterie Genas,Déchèterie Genas Genas Rue de l'Egalite Genas 69740,"Rue de l'Égalité, 69740 Genas, France",45.7452379,5.0072187,True,True,False
Déchèterie Gets (les),Déchèterie Gets (les) Route des Lanches  Les Gets 74260,"Rte des Lanches, 74260 Les Gets, France",46.144762,6.652322,True,True,False
Déchèterie Gilly-sur-isere,"Déchèterie Gilly-sur-isere Déchetterie 147, Route du Grand Arc Gilly-sur-Isère 73200","147 Rte du Grand Arc, 73200 Gilly-sur-Isère, France",45.651107,6.358897,True,True,False
Déchèterie Gresy-sur-Aix,Déchèterie Gresy-sur-Aix Pontpierre Route Napoléon Lieu-Dit Pontpierre Grésy-sur-Aix 73100,"149 Rte Napoléon, 73100 Grésy-sur-Aix, France",45.7121261,5.9174801,False,False,True
Déchèterie Grignan,Déchèterie Grignan les Blaches Ouest  Grignan 26230,"Les Blaches O, 26230 Grignan, France",44.4106581,4.8951387,True,True,False
Déchèterie Grigny,Déchèterie Grigny Grigny 28 Avenue Chantelot Grigny 69520,"28 Av. de Chantelot, 69520 Grigny, France",45.6082096,4.767814899999999,True,True,False
Déchèterie Guilherand-Granges,Déchèterie Guilherand-Granges 1278 Rue Henri Dunant 1278 Rue Henri Dunant Guilherand-Granges 07500,"1278 Rue Henri Dunant, 07500 Guilherand-Granges, France",44.9410901,4.86682,False,False,True
Déchèterie Hauteville-Lompnes,Déchèterie Hauteville-Lompnes Déchetterie Intercommunale Zone Artisanale la Cornella Hauteville-Lompnes* 01110,"ZA la Cornella, 01110 Plateau d'Hauteville, France",45.97952799999999,5.580269899999999,True,True,True
Déchèterie Huez,"Déchèterie Huez Déchèterie Alpe d'Huez Route de l'Alpe d'Huez ""la Patte d'Oie"" Huez 38750","Pl. Joseph Paganon, 38750 Huez, France",45.0906281,6.0649402,True,True,True
Déchèterie Intercommunale de Comblat le Château,Déchèterie Intercommunale de Comblat le Château Za Comblat- Le-château  Vic-sur-Cère 15800,"ZA de, 15800 Vic-sur-Cère, France",44.9660767,2.6095244,True,True,False
Déchèterie Intercommunale de Donzère,Déchèterie Intercommunale de Donzère Sita Centre Est 345 Chemin des Bouzarudes Donzère 26290,"345 Chemin des Bouzarudes, 26290 Donzère, France",44.4240676,4.739683,True,True,False
Déchèterie Isle-d'Abeau (l' ),Déchèterie Isle-d'Abeau (l' ) l'Isle d'Abeau Rue Catalans L'Isle-d'Abeau 38080,"Rue des Catalans, 38080 L'Isle-d'Abeau, France",45.6283337,5.211031,True,True,False
Déchèterie Izernore,Déchèterie Izernore sur Champ Biolay Zi sur Champagne Izernore 01580,"Sur Champ Biolay, 01580 Izernore, France",46.20460200000001,5.54692,True,True,True
Déchèterie Jons,Déchèterie Jons le Rigolet Départementale 550 C Jons 69330,"48 Rte de Pusignan, 69330 Jons, France",45.787387,5.080992999999999,True,True,False
Déchèterie Joyeuse,Déchèterie Joyeuse Quartier le Fadas  Joyeuse 07260,"Le Fadas, 07260 Joyeuse, France",44.4762649,4.2249169,False,False,True
Déchèterie Lanslebourg-Mont-Cenis,Déchèterie Lanslebourg-Mont-Cenis Lanslebourg Rd 1006. Entrée Village Lanslebourg-Mont-Cenis* 73480,"D1006, 73480 Val-Cenis, France",45.2531091,6.908262,True,True,True
Déchèterie Lhuis,Déchèterie Lhuis la Plaine  Lhuis 01680,"La Plaine - D79 route du pont de Groslee, 221 Rte de BARLET, 01680 Lhuis, France",45.724636,5.539342,True,True,False
Déchèterie Livet-et-Gavet,Déchèterie Livet-et-Gavet Livet-et-Gavet  Livet-et-Gavet 38220,"38220 Livet-et-Gavet, France",45.0993627,5.9186099,True,True,True
Déchèterie Livron-sur-drome,Déchèterie Livron-sur-drome Champagnac Champagnac Livron-sur-Drôme 26250,"Chem. de Couthiol, 26250 Livron-sur-Drôme, France",44.7888227,4.8410639,True,True,False
Déchèterie Lorette,Déchèterie Lorette Rue Adèle Bourdon  Lorette 42420,"Rue Adèle Bourdon, 42420 Lorette, France",45.514907,4.579659,False,False,True
Déchèterie Loriol-sur-drome,Déchèterie Loriol-sur-drome Zi des Blaches Zone des Blaches Loriol-sur-Drôme 26270,"15 Vieille Route de Saulce, 26270 Loriol-sur-Drôme, France",44.738259,4.805874999999999,True,True,False
Déchèterie Luc-en-diois,Déchèterie Luc-en-diois Luc-en-diois  Luc-en-Diois 26310,"26310 Luc-en-Diois, France",44.6151,5.452401,True,True,False
Déchèterie Lugrin,Déchèterie Lugrin Route de Thollon Route de Thollon Lugrin 74500,"Rte de Thollon, 74500 Lugrin, France",46.3929791,6.6491301,True,True,False
Déchèterie Lus-la-Croix-Haute,Déchèterie Lus-la-Croix-Haute Déchetterie de Lus Lus la Crois Haute Lus-la-Croix-Haute 26620,"Lus-la-Croix-Haute, 26620 Lus-la-Croix-Haute, France",44.6709974,5.6973582,True,True,False
Déchèterie Lyon 7,"Déchèterie Lyon 7 Lyon 7ème 12, Bld de l'Artillerie Lyon 69007","12 Bd de l'Artillerie, 69007 Lyon, France",45.73525739999999,4.8423061,True,True,False
Déchèterie Lyon 9,"Déchèterie Lyon 9 Lyon 9ème 82, Avenue Sidoine Appolinaire Lyon 69009","82 Av. Sidoine Apollinaire, 69009 Lyon, France",45.7684445,4.795211,True,True,False
Déchèterie Macot-la-Plagne,Déchèterie Macot-la-Plagne Déchetterie Rd 221- la Plagne Sigp Mâcot-la-Plagne* 73210,"73210 La Plagne-Tarentaise, France",45.554691,6.659199,True,True,False
Déchèterie Malataverne,Déchèterie Malataverne Malataverne  Malataverne 26780,"26780 Malataverne, France",44.4862218,4.7525045,True,True,False
Déchèterie Marches,Déchèterie Marches la Gare de Marches Za Gare de Marches Marches 26300,"56 Rue des Batisseurs, 26300 Marches, France",44.9860179,5.104315499999999,False,False,True
Déchèterie Menglon,Déchèterie Menglon Déchetterie Menglon Menglon 26410,"26410 Menglon, France",44.663684,5.46292,True,True,False
Déchèterie Mens,Déchèterie Mens Za Terre des Ruisseaux  Mens 38710,"38710 Mens, France",44.817587,5.751558999999999,True,True,False
Déchèterie Mercurol,Déchèterie Mercurol Déchetterie des Lots Quartier les Lots Mercurol* 26600,"ZAC des Lots, 26600 Mercurol-Veaunes, France",45.063105,4.8730182,False,False,True
Déchèterie Mions,Déchèterie Mions Mions Boulevard des Nations Mions 69780,"Bd des Nations, 69780 Mions, France",45.6726864,4.9326004,True,True,False
Déchèterie Miribel,Déchèterie Miribel Zi de Tuillere Rue de la Traille Miribel 01700,"ZI, 1745 Rue de la Traille, 01700 Miribel, France",45.82309129999999,4.9629886,True,True,False
Déchèterie Mobile Ex-ccmhf,Déchèterie Mobile Ex-ccmhf Déchèterie Mobile  Noirétable 42440,"42440 Noirétable, France",45.81676400000001,3.76642,True,True,False
Déchèterie Modane,Déchèterie Modane l'Isle l'Isle Modane 73500,"Rue de l'Isle, 73500 Modane, France",45.2063126,6.6806686,True,True,True
Déchèterie Moirans,Déchèterie Moirans Za Valmorge Av Aldo Eriani Moirans 38430,"Av. Aldo Eriani, 38430 Moirans, France",45.3234268,5.5740293,True,True,False
Déchèterie Monestier-de-Clermont,Déchèterie Monestier-de-Clermont les Carlaires Parc Louis Samuel Monestier-de-Clermont 38650,"Parc Louis Samuel, 38650 Monestier-de-Clermont, France",44.916434,5.635643,True,True,False
Déchèterie Monsols,Déchèterie Monsols les Places les Places Monsols* 69860,"Le Colombier, 69860 Deux-Grosnes, France",46.2258834,4.5242333,True,True,False
Déchèterie Mont-Saxonnex,Déchèterie Mont-Saxonnex Zi de Pleine Mouille  Mont-Saxonnex 74130,"Rue de la Mouillé, 74130 Mont-Saxonnex, France",46.051406,6.4786149,True,True,False
Déchèterie Mont-de-Lans,Déchèterie Mont-de-Lans Déchèterie de Champet Route des 2 Alpes - Virage N°2 Mont-de-Lans* 38860,"Les Deux Alpes, 38860 Les Deux Alpes, France",45.0176294,6.1248743,True,True,True
Déchèterie Montferrat,Déchèterie Montferrat Grand Etang Route Saint Geoire Montferrat 38620,"Route de St Geoire, 38620, France",45.4438723,5.6201828,True,True,False
Déchèterie Montrottier,Déchèterie Montrottier les Auberges  Montrottier 69770,"Les Auberges, 69770 Montrottier, France",45.7888975,4.4456983,True,True,True
Déchèterie Montvalezan,Déchèterie Montvalezan Genièvre  Montvalezan 73700,"73700 Montvalezan, France",45.611792,6.846731,True,True,False
Déchèterie Montvendre,Déchèterie Montvendre Déchetterie de la Molle Quartier la Molle Montvendre 26120,"Quartier de, La Molle, 26120 Montvendre, France",44.8743419,5.0189794,False,False,True
Déchèterie Morzine,Déchèterie Morzine le Couard 354 Route d'Essert-romand Morzine 74110,"354 Rte d'Essert-Romand, 74110 Morzine, France",46.192956,6.681212899999999,True,True,False
Déchèterie Moutiers - Villarlurin,Déchèterie Moutiers - Villarlurin Salins-les-thermes Ile Ferlay Ile Ferlay Villarlurin* 73600,"73600 Les Belleville, France",45.4642133,6.5357305,True,True,False
Déchèterie Nantoin,Déchèterie Nantoin les Grandes Terres Nantoin Nantoin* 38260,"Nantoin, 38260 Porte-des-Bonnevaux, France",45.43686539999999,5.2704283,True,True,False
Déchèterie Neuville-sur-Saone,Déchèterie Neuville-sur-Saone Neuville-sur-Saone Avenue des Freres Lumiere Neuville-sur-Saône 69250,"790 Av. des Frères Lumière, 69250 Neuville-sur-Saône, France",45.8851007,4.8182361,True,True,False
Déchèterie Neydens,Déchèterie Neydens Près du Carrefour de Beaumont - Fillinges  Neydens 74160,"74160 Neydens, France",46.120361,6.104318,True,True,False
Déchèterie Nivolas-Vermelle,Déchèterie Nivolas-Vermelle la Plaine  Nivolas-Vermelle 38300,"Rue du Vernay, 38300 Nivolas-Vermelle, France",45.5699867,5.3063173,True,True,False
Déchèterie Notre-Dame-de-Bellecombe,Déchèterie Notre-Dame-de-Bellecombe la Gearmandière Route D71a - le Pessey Notre-Dame-de-Bellecombe 73590,"D71A, 73590 Notre-Dame-de-Bellecombe, France",45.790202,6.500456,True,True,False
Déchèterie Novalaise,"Déchèterie Novalaise Déchetterie 360, Route du Bief du Moulinza du Goutier Novalaise 73470","360 Rte du Bief du Moulin, 73470 Novalaise, France",45.5949049,5.7769331,True,True,False
Déchèterie Optevoz,Déchèterie Optevoz Rue Philippe Tassier Rue Philippe Tassier Optevoz 38460,"Rue Philippe Tassier, 38460 Optevoz, France",45.7618713,5.3285512,True,True,False
Déchèterie Panissage,Déchèterie Panissage Za la Galandière  Panissage* 38730,"Rte de la Galandière, 38730 Val-de-Virieu, France",45.490836,5.475477,True,True,False
Déchèterie Panossas,Déchèterie Panossas Lieudit Marsa Lieudit Marsa Panossas 38460,"Marsa, 38460 Panossas, France",45.6665496,5.2055482,True,True,False
Déchèterie Passins,Déchèterie Passins Crevières Crevières Passins* 38510,"Chem. de la Déchèterie, 38510 Arandon-Passins, France",45.6925219,5.4441361,True,True,False
Déchèterie Passy,Déchèterie Passy les Echartaz Sud 1159 Rue de la Centrale Passy 74190,"1159 Rue de la Centrale, 74190 Passy, France",45.9215021,6.7264683,True,True,False
Déchèterie Pelussin,Déchèterie Pelussin Grémieux le Petit Embuant Pélussin 42410,"Le, 42410 Pélussin, France",45.4207544,4.6991836,True,True,False
Déchèterie Peron,Déchèterie Peron Lotissement du Pré-munny Lotissement du Pré-munny Péron 01630,"31 Rue de Pré Munny, 01630 Péron, France",46.1843424,5.926514699999999,True,True,True
Déchèterie Peronnas,Déchèterie Peronnas Z.A.C. de Monternoz Zac des Monternoz Péronnas 01960,"Zac des Monternoz 101 Rue du Thioudet, 01960 Péronnas, France",46.169951,5.192531,False,False,True
Déchèterie Pierre-Benite,Déchèterie Pierre-Benite Pierre-Benite Chemin de la Gravière Pierre-Bénite 69310,"Chem. de la Gravière, 69310 Pierre-Bénite, France",45.6959199,4.8299044,True,True,False
Déchèterie Pleaux,Déchèterie Pleaux Route de Rilhac  Pleaux 15700,"19220 Rilhac-Xaintrie, France",45.167559,2.195821,True,True,False
Déchèterie Pont-Eveque,Déchèterie Pont-Eveque Zi de l'Abbaye D41e Zi de l'Abbaye Pont-Évêque 38780,"ZI de l'Abbaye, 38200 Vienne, France",45.5173166,4.9243083,True,True,False
Déchèterie Pontcharra,"Déchèterie Pontcharra Déchèterie de Pontcharra Impasse Denis Papin, Zi de Pré Brun Pontcharra 38530","1-147 Imp. Denis Papin, 38530 Pontcharra, France",45.4298814,6.0039851,True,True,False
Déchèterie Porcieu-Amblagnieu,Déchèterie Porcieu-Amblagnieu la Creche la Creche Porcieu-Amblagnieu 38390,"Rue de Corniolay, 38390 Porcieu-Amblagnieu, France",45.8261912,5.4121052,True,True,False
Déchèterie Porte-de-savoie,Déchèterie Porte-de-savoie 786 Route des Chancelières Lieu Dit Ile Besson Francin* 73800,"786 Route des Chancelieres, 73800 Porte-de-Savoie, France",45.4910905,6.042499599999999,True,True,False
Déchèterie Pralognan-la-Vanoise,Déchèterie Pralognan-la-Vanoise Déchetterie  Pralognan-la-Vanoise 73710,"73710 Pralognan-la-Vanoise, France",45.3562442,6.7164044,True,True,False
Déchèterie Privas,Déchèterie Privas la Fugière la Clé du Sac# Privas 07000,"1 rue Serre du Serret Cedex, BP 337, 07003 Privas, France",44.7145793,4.6143048,False,False,True
Déchèterie Ravoire (la ),Déchèterie Ravoire (la ) Déchèterie de la Ravoire Route D Apremont Zone D Activités de L Albanne La Ravoire 73490,"1137 Rte d'Apremont, 73490 La Ravoire, France",45.5503052,5.9566069,False,False,True
Déchèterie Recycl'inn de Valserhone,Déchèterie Recycl'inn de Valserhone 1792 Route de la Plaine Chatillon en Michaille Châtillon-en-Michaille* 01200,"Route Plaine, 01200 Valserhône, France",46.130455,5.810827199999999,True,True,False
Déchèterie Regny,Déchèterie Regny le Billard Station d'Épuration Route de Roanne Régny 42630,"42630 Saint-Victor-sur-Rhins, France",46.0089392,4.173070099999999,True,True,False
Déchèterie Ricamarie (la ),Déchèterie Ricamarie (la ) Zi Montrambert Pigeot Zi Montrambert Pigeot La Ricamarie 42150,"Rue de Montrambert, 42500 Le Chambon-Feugerolles, France",45.398719,4.3531678,False,False,True
Déchèterie Rillieux-la-pape,Déchèterie Rillieux-la-pape Rillieux-la-pape Route de Fontaines Rillieux-la-Pape 69140,"Rte de Fontaines, 69140 Rillieux-la-Pape, France",45.8240119,4.883939199999999,True,True,False
Déchèterie Rives,Déchèterie Rives Route de l'Etang Route de l'Etang Rives 38140,"38140 Rives, France",45.3481457,5.514139699999999,True,True,False
Déchèterie Roche,Déchèterie Roche Grand Aillet Grand Aillet Roche 38090,"Grand Aillet La Ferrière, 38090 Roche, France",45.57590210000001,5.1657155,True,True,False
Déchèterie Romans-sur-Isere,"Déchèterie Romans-sur-Isere Déchetterie 12, Bis de l'Avenue de la Déportation Romans-sur-Isère 26100","12 Av. de la Déportation, 26100 Romans-sur-Isère, France",45.0496319,5.0814382,False,False,True
Déchèterie Roybon,Déchèterie Roybon Bas Village Route de Montfalcon Roybon 38940,"Rte de Montfalcon, 38940 Roybon, France",45.2629353,5.2101984,True,True,False
Déchèterie Rumilly,Déchèterie Rumilly Déchèterie de Rumilly Route des Bois Rumilly 74150,"Rte des Bois, 74150 Rumilly, France",45.8832623,5.9260174,False,False,True
Déchèterie Ruoms,Déchèterie Ruoms Champ Perdu  Ruoms 07120,"07120 Ruoms, France",44.45267339999999,4.3536157,False,False,True
Déchèterie Ruy,Déchèterie Ruy Route de Montceau Route de Montceau Ruy-Montceau 38300,"Rte de Montceau, 38300 Ruy-Montceau, France",45.5872306,5.3376374,True,True,False
Déchèterie Saint-Andre-de-Corcy,Déchèterie Saint-Andre-de-Corcy Route de Montluel Route de Montluel Saint-André-de-Corcy 01390,"Rte de Montluel, 01390 Saint-Marcel, France",45.9452922,4.9942045,True,True,False
Déchèterie Saint-Chef,Déchèterie Saint-Chef Collonges Collonges Saint-Chef 38890,"Rte de Chamont, 38890 Saint-Chef, France",45.64458219999999,5.3543243,True,True,False
Déchèterie Saint-Etienne-de-Saint-Geoirs,Déchèterie Saint-Etienne-de-Saint-Geoirs Route de la Frette Route de la Frette Saint-Étienne-de-Saint-Geoirs 38590,"La Frette, France",45.39094,5.361715999999999,True,True,False
Déchèterie Saint-Genis-les-Ollieres,"Déchèterie Saint-Genis-les-Ollieres Saint-Genis-les-Ollieres 2, Avenue Louis Pradel Saint-Genis-les-Ollières 69290","2 Rue Louis Pradel, 69290 Saint-Genis-les-Ollières, France",45.7570931,4.742939799999999,True,True,False
Déchèterie Saint-Genix-sur-Guiers,Déchèterie Saint-Genix-sur-Guiers Déchèterie du Truison le Truison Saint-Genix-sur-Guiers* 73240,"Truison, 73240 Saint-Genix-les-Villages, France",45.6050893,5.646914499999999,True,True,False
Déchèterie Saint-Georges-d'Esperanche,Déchèterie Saint-Georges-d'Esperanche la Forêt la Forêt Saint-Georges-d'Espéranche 38790,"Chem. de Trav., 38790 Saint-Georges-d'Espéranche, France",45.55920320000001,5.1110666,True,True,False
Déchèterie Saint-Germain-Laval,Déchèterie Saint-Germain-Laval Pralong Za du Pralong Saint-Germain-Laval 42260,"Pralong, 42260 Saint-Germain-Laval, France",45.8324752,4.02633,True,True,False
Déchèterie Saint-Germain-sur-Rhone,Déchèterie Saint-Germain-sur-Rhone les Rippes  Saint-Germain-sur-Rhône 74910,"Les Rippes, 01240 Certines, France",46.150265,5.2713979,True,True,False
Déchèterie Saint-Honore,Déchèterie Saint-Honore Mini Déchèterie Fugières Saint-Honoré 38350,"Fugières, 38350 Saint-Honoré, France",44.954125,5.807188,True,True,False
Déchèterie Saint-Jean-de-Bournay,Déchèterie Saint-Jean-de-Bournay le Reposu le Reposu Saint-Jean-de-Bournay 38440,"Reposu, 38440 Saint-Jean-de-Bournay, France",45.497516,5.159796,True,True,False
Déchèterie Saint-Jean-de-Sixt,Déchèterie Saint-Jean-de-Sixt Forgeassoud Dessous Route de Forgeassoud Saint-Jean-de-Sixt 74450,"voie communale N°7 dite de, 74450 Saint-Jean-de-Sixt, France",45.918052,6.398048999999999,True,True,False
Déchèterie Saint-Jean-de-Soudain,Déchèterie Saint-Jean-de-Soudain Zi du Chapelier Chemin des Marais Saint-Jean-de-Soudain 38110,"Chem. du Marais, 38110 Saint-Jean-de-Soudain, France",45.5634965,5.4269063,True,True,False
Déchèterie Saint-Jeoire,Déchèterie Saint-Jeoire la Géode 447 Route des Moulins Saint-Jeoire 74490,"447 Rte des Moulins, 74490 Saint-Jeoire, France",46.13487070000001,6.4677076,True,True,False
Déchèterie Saint-Laurent-d'Oingt,Déchèterie Saint-Laurent-d'Oingt Za les Plaines  Saint-Laurent-d'Oingt* 69620,"358 Les Plaines, 69620 Val d'Oingt, France",45.9257855,4.5569856,True,True,False
Déchèterie Saint-Laurent-de-Mure,Déchèterie Saint-Laurent-de-Mure la Piccardière  Saint-Laurent-de-Mure 69720,"Rte de Toussieu, 69720 Saint-Laurent-de-Mure, France",45.6711597,5.0153453,True,True,False
Déchèterie Saint-Leger,"Déchèterie Saint-Leger la Fassine Lieu Dit ""la Fassine"" Saint-Léger 73220","73220 Saint-Léger, France",45.436105,6.276750000000001,True,True,True
Déchèterie Saint-Marcel-l'Eclaire,Déchèterie Saint-Marcel-l'Eclaire Goutte Vignole Chemin de la Goutte Vignole Saint-Marcel-l'Éclairé 69170,"Chem. de Goutte Vignole, 69170, France",45.8863797,4.4636068,False,False,True
Déchèterie Saint-Marcel-les-Valence,Déchèterie Saint-Marcel-les-Valence Chemin des Acacias Chemin des Acacias Saint-Marcel-lès-Valence 26320,"Chem. des Acacias, 26320 Saint-Marcel-lès-Valence, France",44.962368,4.9458899,False,False,True
Déchèterie Saint-Martin-en-Haut,Déchèterie Saint-Martin-en-Haut les Laÿs  Saint-Martin-en-Haut 69850,"Route, Saint Symphorien sur Coise, 69850 Saint-Martin-en-Haut, France",45.6536627,4.5390389,True,True,True
Déchèterie Saint-Michel-de-Maurienne,"Déchèterie Saint-Michel-de-Maurienne la Saussaz Lieu Dit ""les Sorderettes"" Saint-Michel-de-Maurienne 73140","Les Sorderettes, 73140 Saint-Michel-de-Maurienne, France",45.2087999,6.510796999999999,True,True,True
Déchèterie Saint-Paul-Trois-Chateaux,Déchèterie Saint-Paul-Trois-Chateaux Déchetterie du Bois Mahon le Bois Mahon Saint-Paul-Trois-Châteaux 26130,"Le Bois Mahon, 26130 Saint-Paul-Trois-Châteaux, France",44.366064,4.7414136,True,True,False
Déchèterie Saint-Pierre-d'Albigny,Déchèterie Saint-Pierre-d'Albigny Déchetterie Sous la Gare Saint-Pierre-d'Albigny 73250,"Gare de Saint-Pierre-d'Albigny, 73250 Saint-Pierre-d'Albigny, France",45.557373,6.156266,True,True,False
Déchèterie Saint-Pierre-d'Allevard,Déchèterie Saint-Pierre-d'Allevard Ronzière Rue de la Ronzière Saint-Pierre-d'Allevard* 38830,"Rue de la Ronzière, 38830 Crêts-en-Belledonne, France",45.3701306,6.043748,True,True,False
Déchèterie Saint-Priest,Déchèterie Saint-Priest Saint-Priest Rue du Maconnais Saint-Priest 69800,"Rue du Mâconnais, 69800 Saint-Priest, France",45.6958855,4.9221559,True,True,False
Déchèterie Saint-Quentin-Fallavier,Déchèterie Saint-Quentin-Fallavier Saint-Quentin-Fallavier la Pierre Milliere Saint-Quentin-Fallavier 38070,"Rue de la Pierre Miliaire, 38070 Saint-Quentin-Fallavier, France",45.6385348,5.1179761,True,True,False
Déchèterie Saint-Quentin-sur-Isere,"Déchèterie Saint-Quentin-sur-Isere Zone d'Activités du Gouret Rn 532, Za du Gouret# Saint-Quentin-sur-Isère 38210","N532, France",44.9862769,4.9800865,True,True,False
Déchèterie Saint-Sauveur-de-Montagut,Déchèterie Saint-Sauveur-de-Montagut Déchetterie du Moulinon Rd 120 Saint-Sauveur-de-Montagut 07190,"Le Moulinon, 07190 Saint-Sauveur-de-Montagut, France",44.8183868,4.6058181,False,False,True
Déchèterie Saint-Sorlin-en-Valloire,Déchèterie Saint-Sorlin-en-Valloire Déchetterie des Grises Quartier les Grises Saint-Sorlin-en-Valloire 26210,"Les Grises, 26210 Saint-Sorlin-en-Valloire, France",45.258428,4.973883,False,False,True
Déchèterie Saint-Trivier-de-Courtes,Déchèterie Saint-Trivier-de-Courtes Ancien Hospice Ancien Hospice Saint-Trivier-de-Courtes 01560,"226 Rte des Brosses, 01560 Saint-Trivier-de-Courtes, France",46.4633844,5.0814996,True,True,False
Déchèterie Saint-Victor-de-Cessieu,Déchèterie Saint-Victor-de-Cessieu Za Giroud Za Giroud Saint-Victor-de-Cessieu 38110,"Chem. Giroud, 38110 Saint-Victor-de-Cessieu, France",45.5369888,5.4065011,True,True,False
Déchèterie Saint-alban-leysse,Déchèterie Saint-alban-leysse Déchèterie de Saint-alban Leysse Rte de la Feclaz Saint-Alban-Leysse 73230,"Rte de la Féclaz, 73230 Saint-Alban-Leysse, France",45.57452749999999,5.9644762,False,False,True
Déchèterie Saint-cernin,Déchèterie Saint-cernin le Grangeou  Saint-Cernin 15310,"15310 Saint-Cernin, France",45.05747,2.422043,True,True,False
Déchèterie Saint-clair-du-rhone,Déchèterie Saint-clair-du-rhone Varambon Zone Artisanale 2000 Saint-Clair-du-Rhône 38370,"Rte de Péage, 38370 Saint-Clair-du-Rhône, France",45.4232753,4.7740059,False,False,True
Déchèterie Saint-donat-sur-l'herbasse,Déchèterie Saint-donat-sur-l'herbasse Déchetterie les Sables Za les Sables Saint-Donat-sur-l'Herbasse 26260,"Les Sables, 26260, France",45.132297,5.0473656,True,True,False
Déchèterie Saint-egreve,Déchèterie Saint-egreve les Moutonnées 45 Rue Pont Noir Saint-Égrève 38120,"45 Rue du Pont Noir, 38120 Saint-Egrève, France",45.224654,5.676785499999999,False,False,True
Déchèterie Saint-etienne - le Soleil,Déchèterie Saint-etienne - le Soleil Déchèterie du Soleil Rue Victor Grignard St Etienne Nord Saint-Étienne 42000,"Rue Victor Grignard, 42000 Saint-Étienne, France",45.4597856,4.401524,False,False,True
Déchèterie Saint-galmier,Déchèterie Saint-galmier les Flaches les Flaches Saint-Galmier 42330,"Les Flaches, France",45.5558793,4.3685353,False,False,True
Déchèterie Saint-genis-pouilly,Déchèterie Saint-genis-pouilly Chemin du Moulin des Ponts Chemin du Moulin des Ponts Saint-Genis-Pouilly 01630,"Chem. du Moulin des Ponts, 01630 Saint-Genis-Pouilly, France",46.2546046,6.048475199999999,True,True,True
Déchèterie Saint-jean-d'arves,Déchèterie Saint-jean-d'arves St Sorlin - (dépot Communal) Lieu-dit les Savoies Saint-Jean-d'Arves 73530,"73530 Saint-Sorlin-d'Arves, France",45.22157600000001,6.234954999999999,True,True,False
Déchèterie Saint-julien-mont-denis,Déchèterie Saint-julien-mont-denis les Fontagneux les Fontagneux Saint-Julien-Mont-Denis 73870,"73870 Saint-Julien-Mont-Denis, France",45.25593200000001,6.404084,True,True,True
Déchèterie Saint-just-en-chevalet,Déchèterie Saint-just-en-chevalet l'Usine l'Usine Saint-Just-en-Chevalet 42430,"L'Usine, 42430 Saint-Just-en-Chevalet, France",45.9153126,3.8373866,True,True,False
Déchèterie Saint-just-saint-rambert,Déchèterie Saint-just-saint-rambert Pré Furan Route de la Fouillouse Saint-Just-Saint-Rambert 42170,"Pré Furan, 42170 Saint-Just-Saint-Rambert, France",45.5098382,4.2749895,True,True,False
Déchèterie Saint-laurent-en-royans,Déchèterie Saint-laurent-en-royans Déchetterie Zone Artisanale Zone Artisanale Saint-Laurent-en-Royans 26190,"26190 Saint-Laurent-en-Royans, France",45.0325562,5.3188662,True,True,False
Déchèterie Saint-martin-de-belleville-les Menuires,Déchèterie Saint-martin-de-belleville-les Menuires les Menuires Lieu Dit la Planche aux Menuires Saint-Martin-de-Belleville* 73440,"Les Menuires, 73440 Les Belleville, France",45.3303285,6.531546899999999,True,True,False
Déchèterie Saint-nicolas-de-macherin,Déchèterie Saint-nicolas-de-macherin le Pilon Saint Nicolas de Marcherin Saint-Nicolas-de-Macherin 38500,"34 All. du Plan Robert, 38500 Saint-Nicolas-de-Macherin, France",45.3995291,5.5954573,True,True,False
Déchèterie Saint-pierre-d'entremont,Déchèterie Saint-pierre-d'entremont Ouvert en 2009 à Côté de la Chaufferie Chartreuse Energie Saint-Pierre-d'Entremont 73670,"Chartreuse Mountains, 73670 Saint-Pierre-d'Entremont, France",45.3773525,5.827970700000001,True,True,False
Déchèterie Saint-rambert-en-bugey,Déchèterie Saint-rambert-en-bugey Za du Moulin A Papier  Saint-Rambert-en-Bugey 01230,"ZA, Moulin À Papier, 01230 Saint-Rambert-en-Bugey, France",45.9499343,5.460106199999999,True,True,False
Déchèterie Saint-remeze,Déchèterie Saint-remeze Quartier le Tourroulet  Saint-Remèze 07700,"Le Touroulet, 07700 Saint-Remèze, France",44.3948059,4.4895043,False,False,True
Déchèterie Saint-romain-de-jalionas,Déchèterie Saint-romain-de-jalionas les Serpollières les Serpollières Saint-Romain-de-Jalionas 38460,"17 Rue des Acacias, 38460 Saint-Romain-de-Jalionas, France",45.7634646,5.2111981,True,True,False
Déchèterie Saint-sauveur,Déchèterie Saint-sauveur Route de la Croix de May Route de la Croix de May Saint-Sauveur 38160,"Rte de la Croix de May, 38160 Saint-Sauveur, France",45.1524329,5.328744299999999,True,True,False
Déchèterie Sainte-eulalie,"Déchèterie Sainte-eulalie 4, Route de Salers  Sainte-Eulalie 15140","4 Rte de Salers, 15700 Ally, France",45.1735783,2.3138067,True,True,False
Déchèterie Sarras,Déchèterie Sarras Grande Ile Grande Ile Sarras 07370,"Grande Île, 07370 Sarras, France",45.1828829,4.808229,False,False,True
Déchèterie Satolas-et-Bonce,Déchèterie Satolas-et-Bonce Cet Satolas Rond Point de Grenay-Rn6 Satolas-et-Bonce 38290,"Grenay, France",50.449353,2.743681,True,True,False
Déchèterie Savigneux,Déchèterie Savigneux la Loge Déchèterie de Savigneux Savigneux 42600,"La Loge, 42600 Savigneux, France",45.60074609999999,4.1049299,True,True,True
Déchèterie Sciez,Déchèterie Sciez Chemin de l'Effly Chemin de l'Effly Sciez 74140,"135 Chem. de l'Effly, 74140 Sciez, France",46.3282113,6.368822499999999,True,True,False
Déchèterie Sederon,Déchèterie Sederon le Moulin le Moulin Sortie Nord Séderon 26560,"Nord, France",50.3851246,3.2642436,True,True,False
Déchèterie Seyssel,Déchèterie Seyssel Za l'Ile Nord Route du Fier Seyssel 74910,"ZA de l'Ile Nord, 74910 Seyssel, France",45.9493103,5.8384084,True,True,False
Déchèterie Sousville,Déchèterie Sousville Déchetterie Intercommunale Route de Gap Sousville 38350,"Chem. des Araignées, 38350 La Mure, France",44.9020263,5.799165599999999,True,True,False
Déchèterie Sury-le-comtal,Déchèterie Sury-le-comtal Zi Sury l'Echaud Sury-le-Comtal 42450,"L'Echaud, 42450 Sury-le-Comtal, France",45.5241155,4.1880412,False,False,True
Déchèterie Suze-la-Rousse,Déchèterie Suze-la-Rousse Rd 251 Route de Bouchet Suze-la-Rousse 26790,"251 Rte de Bouchet, 26790 Tulette, France",44.28726710000001,4.926724999999999,True,True,False
Déchèterie Taninges,Déchèterie Taninges Jutteninges Jutteninges Taninges 74440,"Jutteninges, 74440 Taninges, France",46.100622,6.649000999999999,True,True,False
Déchèterie Theize,Déchèterie Theize le Merloup le Merloup Theize Theizé 69620,"Le Merloux, 69620 Theizé, France",45.9379673,4.6511838,True,True,False
Déchèterie Thones,Déchèterie Thones les Vernaies Nords 2  Thônes 74230,"9 rue du Closet ZA DE LA, Rue de la Balmette, 74230 Thônes, France",45.8924834,6.3005516,True,True,False
Déchèterie Tignes - les Brévières,Déchèterie Tignes - les Brévières Tignes Val d'Isère les Brevieres Route Départementale 902 Tignes 73320,"Les Brévières, 73320 Tignes, France",45.508111,6.920158000000001,True,True,True
Déchèterie Tournon-sur-rhone,Déchèterie Tournon-sur-rhone Iles Feray Chemin des Iles Feray Tournon-sur-Rhône 07300,"Unnamed Road, 07300 Tournon-sur-Rhône, France",45.0446305,4.8431164,True,True,False
Déchèterie Tullins,Déchèterie Tullins la Revolaz Zi Route de St Quentin Tullins 38210,"Rte de Saint-Quentin, Tullins, France",45.3112799,5.5460649,True,True,False
Déchèterie Ugine,Déchèterie Ugine Déchetterie Zone Industrielle des Bavelins Ugine 73400,"Rue Henri Gruaz, 73400 Ugine, France",45.760751,6.397594,True,True,False
Déchèterie Vacheresse,Déchèterie Vacheresse la Revenette  Vacheresse 74360,"La Revenette, 74360 Vacheresse, France",46.31413999999999,6.687327,True,True,False
Déchèterie Vailly,Déchèterie Vailly les Plagnes  Vailly 74470,"Les Plagnes, 74470 Vailly, France",46.27353000000001,6.550987999999999,True,True,False
Déchèterie Valaurie,Déchèterie Valaurie Zone d'Activité du Clavon Zone d'Activité du Clavon Valaurie 26230,"6 Clavon ZA, 26230 Valaurie, France",44.4159698,4.806439,True,True,False
Déchèterie Valence / Portes-lès-valence,Déchèterie Valence / Portes-lès-valence Valence Chaffit Chemin du Pont des Anglais -  la Motte Valence 26000,"735 Rue Jean Rostand, 26800 Portes-lès-Valence, France",44.8942865,4.877731199999999,False,False,True
Déchèterie Valence Lehaut,Déchèterie Valence Lehaut Valence Lehaut 15 Cours Manuel de Falla Valence 26000,"15 Cr Manuel de Falla, 26000 Valence, France",44.9363585,4.9325795,False,False,True
Déchèterie Valencin,Déchèterie Valencin le Gravier Départementale 53 Valencin 38540,"Le Gravier, Rte de Lafayette, 38540 Valencin, France",45.5965353,5.0590133,True,True,False
Déchèterie Valezan,Déchèterie Valezan le Praz le Praz Rn 90 Valezan* 73210,"Valezan, 73210 La Plagne-Tarentaise, France",45.574792,6.693781,True,True,False
Déchèterie Valloire,Déchèterie Valloire Valloire Rue de la Bonne Eau Valloire 73450,"73450 Valloire, France",45.1657714,6.4254055,True,True,False
Déchèterie Vallon-pont-d'arc,Déchèterie Vallon-pont-d'arc Prépaillères  Vallon-Pont-d'Arc 07150,"07150 Vallon-Pont-d'Arc, France",44.41182939999999,4.3849616,False,False,True
Déchèterie Vaugneray,Déchèterie Vaugneray Maison Blanche Parc d'Activités des Deux Vallées Vaugneray* 69670,"Rue des 2 Vallées, 69670 Vaugneray, France",45.7272184,4.667002399999999,False,False,True
Déchèterie Vaujany,Déchèterie Vaujany Route des Combes Route des Combes Vaujany 38114,"Sagne et les Combes & Route des Combes, 38114 Vaujany, France",45.1571209,6.0817727,True,True,True
Déchèterie Vaulnaveys-le-haut,Déchèterie Vaulnaveys-le-haut les Bessins Route d'Uriage à Brié Vaulnaveys-le-Haut 38410,"D5E, 38410 Vaulnaveys-le-Haut, France",45.122474,5.803961999999999,False,False,True
Déchèterie Vaulx-en-Velin,"Déchèterie Vaulx-en-Velin Vaux-en-Velin 15, Rue Pierre Mendès France Vaulx-en-Velin 69120","15 Rue Pierre Mendès France, 69120 Vaulx-en-Velin, France",45.7776855,4.9333334,True,True,False
Déchèterie Venissieux,Déchèterie Venissieux Venissieux Rue Jean Moulin Vénissieux 69200,"Av. Jean Moulin, 69200 Vénissieux, France",45.68956379999999,4.8682422,True,True,False
Déchèterie Vernosc-les-annonay les Ensuries,"Déchèterie Vernosc-les-annonay les Ensuries les Ensuries 151, Route d'Armenson Vernosc-lès-Annonay 07430","151 Rte d'Armanson, 07430 Vernosc-lès-Annonay, France",45.219185,4.7089741,False,False,True
Déchèterie Vernoux-en-vivarais,Déchèterie Vernoux-en-vivarais Chemin du Chambon Chemin du Chambon Vernoux-en-Vivarais 07240,"Le Chambon, 07240 Vernoux-en-Vivarais, France",44.881538,4.632,True,True,False
Déchèterie Versonnex,Déchèterie Versonnex Cd15 Cd15 Versonnex 01210,"Rte de Cessy, 01210 Versonnex, France",46.31188,6.091327,True,True,True
Déchèterie Vetraz-monthoux,Déchèterie Vetraz-monthoux Déchetterie des Grands Bois Rue Germain Sommeiller Vétraz-Monthoux 74100,"Rue Germain Sommeiller, 74100 Vétraz-Monthoux, France",46.19502,6.271139,True,True,False
Déchèterie Vienne,Déchèterie Vienne Vienne Sud Saint Alban les Vignes Vienne 38200,"357 CC de Saint-Avour, 38121 Vienne, France",45.4990327,4.8533362,True,True,False
Déchèterie Vif,Déchèterie Vif Gare de Vif Avenue de la Gare Vif 38450,"Av. de la Gare, 38450 Vif, France",45.0475833,5.686791599999999,False,False,True
Déchèterie Villard-Sallet,Déchèterie Villard-Sallet Déchetterie Route Départementale 925 Villard-Sallet 73110,"Rue du Rebet, 73110 Villard-Sallet, France",45.4825928,6.1444074,True,True,False
Déchèterie Villard-de-Lans,Déchèterie Villard-de-Lans Fenat Zone de Fenat Villard-de-Lans 38250,"3GJJ+QX, 38250 Villard-de-Lans, France",45.0819287,5.532492299999999,True,True,True
Déchèterie Villars-les-Dombes,Déchèterie Villars-les-Dombes Zac de la Tuilerie Rue Pierre Poivre Villars-les-Dombes 01330,"ZAC de la Tuilerie Rue Pierre Poivre, 01330 Villars-les-Dombes, France",46.005232,5.041757,True,True,False
Déchèterie Villefontaine,Déchèterie Villefontaine Dechetterie du Baron Avenue Lemand Villefontaine 38090,"10 Av. du Lemand, 38090 Villefontaine, France",45.6204681,5.1564979,True,True,False
Déchèterie Villette-d'anthon,Déchèterie Villette-d'anthon Cyprès Rue des Cypres Villette-d'Anthon 38280,"Rue des Cyprès, 38280 Villette-d'Anthon, France",45.7927471,5.1165866,True,True,False
Déchèterie Villette-de-Vienne,Déchèterie Villette-de-Vienne Chemin du Maupas Chemin du Maupas Villette-de-Vienne 38200,"119 Rte du Maupas, 38200 Villette-de-Vienne, France",45.5825588,4.9150329,True,True,False
Déchèterie Villeurbanne Nord,Déchèterie Villeurbanne Nord Villeurbanne Nord Rue Alfred Brinon Villeurbanne 69100,"Rue Alfred Brinon, 69100 Villeurbanne, France",45.7766767,4.8966582,True,True,False
Déchèterie Villeurbanne Sud,Déchèterie Villeurbanne Sud Villeurbanne Sud 100-110 Avenue Paul Krüger Villeurbanne 69100,"100 Av. Paul Kruger, 69100 Villeurbanne, France",45.75472200000001,4.9012394,True,True,False
Déchèterie Vinay,Déchèterie Vinay les Levées Za les Levées Vinay 38470,"430 Les Levées, 38470 Vinay, France",45.2073233,5.42263,True,True,False
Déchèterie Vinzier,Déchèterie Vinzier le Cret Rachet Vers les Granges Vinzier 74500,"Le Crêt, 74500 Chevenoz, France",46.342715,6.630545,True,True,False
Déchèterie Virieu-le-Grand,Déchèterie Virieu-le-Grand Route d'Artemare  Virieu-le-Grand 01510,"ZA en Planchon, Rte de Genève, 01510 Virieu-le-Grand, France",45.85227,5.657169,True,True,False
Déchèterie Viriville,"Déchèterie Viriville les Baytières Route de Marcilloles, D156 Viriville 38980","Les Baytières, 38980 Viriville, France",45.324844,5.199538,True,True,False
Déchèterie Voulte-sur-Rhone (la ),Déchèterie Voulte-sur-Rhone (la ) Za la Vignasse Ponson La Voulte-sur-Rhône 07800,"Qur de Ponson, 07800 La Voulte-sur-Rhône, France",44.8160004,4.7891865,False,False,True
Déchèterie Vulbens,Déchèterie Vulbens Déchèterie de Vulbens Za de Chavanoux Vulbens 74520,"74520 Vulbens, France",46.101439,5.931858,True,True,False
Déchèterie d'Ainay-le-château,Déchèterie d'Ainay-le-château le Champ de la Ville  Ainay-le-Château 03360,"Le Champ de la ville, 03360 Ainay-le-Château, France",46.7040341,2.6972508,True,True,False
Déchèterie d'Allegre,Déchèterie d'Allegre Site du Chier Route de Bellevue Allègre 43270,"15 Le Chier, 43270 Allègre, France",45.2071194,3.7280788,True,True,False
Déchèterie d'Issoire,Déchèterie d'Issoire Rue Alexandre Vialatte ZI des Listes Issoire 63500,"Rue Alexandre Vialatte, 63500 Issoire, France",45.5544385,3.2649961,True,True,False
Déchèterie d'Yssingeaux,Déchèterie d'Yssingeaux Zone Artisanale la Guide  Yssingeaux 43200,"ZI la Guide, 43200 Yssingeaux, France",45.1587672,4.133441599999999,True,True,False
Déchèterie de Bagnols,Déchèterie de Bagnols Route des 4 Vents  Bagnols 63810,"63810 Bagnols, France",45.5010199,2.631136,True,True,False
Déchèterie de Bas en Basset,Déchèterie de Bas en Basset Lieu Dit la France  Bas-en-Basset 43210,"43210 Bas-en-Basset, France",45.305846,4.109558,True,True,False
Déchèterie de Bayet,Déchèterie de Bayet les Bouillots  Bayet 03500,"D506, 03500 Bayet, France",46.25439069999999,3.2824344,True,True,True
Déchèterie de Bellenaves,Déchèterie de Bellenaves en Face du Silo  Bellenaves 03330,"03330 Bellenaves, France",46.201881,3.0878558,True,True,False
Déchèterie de Besse,Déchèterie de Besse Route départementale 978 Chilosa Besse-et-Saint-Anastaise 63610,"D978, 63610 Besse-et-Saint-Anastaise, France",45.5212478,2.9426517,True,True,False
Déchèterie de Blanzat,Déchèterie de Blanzat Route de Sayat  Blanzat 63112,"Rte de Sayat, 63112 Blanzat, France",45.82721919999999,3.064786,True,True,True
Déchèterie de Brassac,Déchèterie de Brassac ZI la Plaigne route des jumeaux Brassac-les-Mines 63570,"Rte de Jumeaux, 43390 Brassac-les-Mines, France",45.4214156,3.3426107,True,True,False
Déchèterie de Brioude,"Déchèterie de Brioude 4, Rue Julien Fayolle  Brioude 43100","4 Rue Julien Fayolle, 43100 Brioude, France",45.31541660000001,3.3711016,True,True,False
Déchèterie de Chambon,Déchèterie de Chambon Pont de Combelles  Le Chambon-sur-Lignon 43400,"Le Bois de Chambon, 43400 Le Chambon-sur-Lignon, France",45.054244,4.304428,True,True,False
Déchèterie de Chambonas les Vans,Déchèterie de Chambonas les Vans Champvert / Vans Chambonas Chambonas 07140,"Bas, 95 Le Meliet, 07140 Chambonas, France",44.41810419999999,4.1243342,False,False,True
Déchèterie de Chantelle Chezelle,Déchèterie de Chantelle Chezelle Lieu-dit les Mollards  Chantelle 03140,"Lieu Dit Les Mollard, 03140 Chezelle, France",46.232083,3.1215312,True,True,False
Déchèterie de Charmeil,Déchèterie de Charmeil les Grands Champs  Charmeil 03110,"Rte des Grands Champs, 03110 Charmeil, France",46.1516576,3.3823327,True,True,False
Déchèterie de Condat,Déchèterie de Condat Pont de Laspérières  Condat 15190,"15190 Condat, France",45.33315650000001,2.7539124,True,True,False
Déchèterie de Cournon,Déchèterie de Cournon Av de Lempdes  Cournon-d'Auvergne 63800,"Av. de Lempdes, 63800 Cournon-d'Auvergne, France",45.7451179,3.2020844,True,True,True
Déchèterie de Courpière,Déchèterie de Courpière Rue Francisque Sauzedde Za de Lagat Courpière 63120,"Rue de Lagat, 63120 Courpière, France",45.7637874,3.5440604,True,True,False
Déchèterie de Craponne,Déchèterie de Craponne Route du Puy le Grand Garay Craponne-sur-Arzon 43500,"Le Grand Garay, 43500 Jullianges, France",45.305342,3.785896,True,True,False
Déchèterie de Cusset,Déchèterie de Cusset Chemin de la Perche Za de Champcourt Cusset 03300,"10 Chem. de la Perche, 03300 Cusset, France",46.1428319,3.4496313,True,True,False
Déchèterie de Cérilly,Déchèterie de Cérilly 22 Avenue de la Vigne au Bois  Cérilly 03350,"24 Av. de la Vigne du Bois, 03350 Cérilly, France",46.6105566,2.8322103,True,True,False
Déchèterie de Dunières,Déchèterie de Dunières la Gueuse  Dunières 43220,"La Geuse, 43220 Dunières, France",45.1964816,4.3500958,True,True,False
Déchèterie de Ebreuil,Déchèterie de Ebreuil Allée du Chemin de Fer  Ébreuil 03450,"All. du Chemin de Fer, 03450 Ébreuil, France",46.1201628,3.0940776,True,True,False
Déchèterie de Feyzin,Déchèterie de Feyzin 26 Rue Léon Blum  Feyzin 69320,"26 Rue Léon Blum, 69320 Feyzin, France",45.6772308,4.8551969,True,True,False
Déchèterie de Gannat,Déchèterie de Gannat la Batisse  Gannat 03800,"5 Rue du Four (la Bâtisse), 03800 Gannat, France",46.0772541,3.1807641,True,True,False
Déchèterie de Gerzat,Déchèterie de Gerzat Route de Cebazat Pres cimetiere Gerzat 63360,"63360 Gerzat, France",45.8242497,3.1368384,True,True,True
Déchèterie de Giat,Déchèterie de Giat 15 Route de la Celle  Giat 63620,"Route de la Celle, 63620 Giat, France",45.8092727,2.4691805,True,True,False
Déchèterie de Gravanches Clermont-ferrand,Déchèterie de Gravanches Clermont-ferrand Rue Jacques Mailhot Za des Gravanches Clermont-Ferrand 63100,"Rue Jacques Mailhot, 63100 Clermont-Ferrand, France",45.7958795,3.1262643,True,True,True
Déchèterie de Lacoste Sud - Saint-mamet,Déchèterie de Lacoste Sud - Saint-mamet Déchèterie Communautaire de Lacoste Sud  Saint-Mamet-la-Salvetat 15220,"15220 Saint-Mamet-la-Salvetat, France",44.85828,2.307308,True,True,False
Déchèterie de Lafeuillade-en-vézie,Déchèterie de Lafeuillade-en-vézie Peyreiro  Lafeuillade-en-Vézie 15130,"15130 Lafeuillade-en-Vézie, France",44.7899109,2.460716,True,True,False
Déchèterie de Langeac,Déchèterie de Langeac ZA Chambaret  Langeac 43300,"1 Bouvagnat, 43300 Langeac, France",45.0863373,3.5063459,True,True,False
Déchèterie de Massiac,Déchèterie de Massiac ZA La Prade  Massiac 15500,"rue Jacques Chaban Delmas, 15500 Massiac, France",45.2594442,3.189321,True,True,False
Déchèterie de Mauriac,Déchèterie de Mauriac Boulevard Pasteur  Mauriac 15200,"Bd Pasteur, 15200 Mauriac, France",45.2166991,2.3512087,True,True,False
Déchèterie de Mayet de Montagne,Déchèterie de Mayet de Montagne Za de Mornier  Le Mayet-de-Montagne 03250,"Za de Mornier, 03250 Le Mayet-de-Montagne, France",46.0579933,3.6583745,True,True,False
Déchèterie de Monetay sur Allier,Déchèterie de Monetay sur Allier Près du Terrain de Football  Monétay-sur-Allier 03500,"03500 Monétay-sur-Allier, France",46.38129499999999,3.301234,True,True,False
Déchèterie de Montaigut le Blanc,Déchèterie de Montaigut le Blanc Route de Reignat  Montaigut-le-Blanc 63320,"1 Pl. Amouroux, 63320 Montaigut-le-Blanc, France",45.58485719999999,3.0913865,True,True,False
Déchèterie de Neussargues,Déchèterie de Neussargues Route d'Allanche  Neussargues-Moissac* 15170,"D679, 15170 Neussargues en Pinatelle, France",45.1436691,2.9790387,True,True,False
Déchèterie de Polignac,Déchèterie de Polignac Za de Polignac Musac Polignac 43000,"Musac, 43000 Polignac, France",45.085154,3.835002,True,True,False
Déchèterie de Pont du Chateau,Déchèterie de Pont du Chateau ROUTE DE DALLET  Pont-du-Château 63430,"73 Av. de Cournon, 63430 Pont-du-Château, France",45.78204849999999,3.2376103,True,True,True
Déchèterie de Pontaumur,Déchèterie de Pontaumur Marcoueix  Pontaumur 63380,"Marcoueix, 63380 Pontaumur, France",45.8529853,2.6998616,True,True,False
Déchèterie de Puy-guillaume,Déchèterie de Puy-guillaume Rue de l'Ache  Puy-Guillaume 63290,"Rue de l'Ache, 63290 Puy-Guillaume, France",45.949555,3.4777356,True,True,False
Déchèterie de Retournac,Déchèterie de Retournac Route de Craponne le Clapier Retournac 43130,"Route de Craponne & Le Clapier, 43130 Retournac, France",45.211347,4.028885,True,True,False
Déchèterie de Riom-ès-montagnes,Déchèterie de Riom-ès-montagnes Lieu Dit Roche Haute  Riom-ès-Montagnes 15400,"Roches Hautes N, 15400 Riom-ès-Montagnes, France",45.2897873,2.6292569,True,True,False
Déchèterie de Rochefort,Déchèterie de Rochefort le Bourg Derriere le Magazin Shopy Rochefort-Montagne 63210,"63210 Rochefort-Montagne, France",45.6848162,2.8047894,True,True,False
Déchèterie de Romagnat,Déchèterie de Romagnat Impasse Lavoisier Rond Point Fernand Forest Romagnat 63540,"Rue des Trois Villes, 63540 Romagnat, France",45.7429096,3.105227,True,True,True
Déchèterie de Saint Eloy les Mines,Déchèterie de Saint Eloy les Mines les Nigonnes  Saint-Éloy-les-Mines 63700,"Les Nigonnes, 63700 Saint-Éloy-les-Mines, France",46.167255,2.845705,True,True,True
Déchèterie de Saint Germain Laprade,Déchèterie de Saint Germain Laprade Zone Industrielle  Saint-Germain-Laprade 43700,"43700 Saint-Germain-Laprade, France",45.037988,3.968507,True,True,False
Déchèterie de Saint Germain Pres Herment,Déchèterie de Saint Germain Pres Herment Route des Chadeau  Saint-Germain-près-Herment 63470,"Chadeau, 63470 Saint-Germain-prés-Herment, France",45.7384119,2.5764327,True,True,False
Déchèterie de Saint Germain des Fossés,Déchèterie de Saint Germain des Fossés Zi du Coquet Seuillet Saint-Germain-des-Fossés 03260,"Imp. Dr Seuillet, 03260 Saint-Germain-des-Fossés, France",46.205753,3.438062,True,True,False
Déchèterie de Saint Gérand le Puy,Déchèterie de Saint Gérand le Puy le Bourg - Rn 7  Saint-Gérand-le-Puy 03150,"03150 Saint-Gérand-le-Puy, France",46.25658199999999,3.512527,True,True,False
Déchèterie de Saint Prix,Déchèterie de Saint Prix les Jeanrais  Saint-Prix 03120,"Les Jeanrais, 03120 Saint-Prix, France",46.2376747,3.6429795,True,True,False
Déchèterie de Saint Yorre,Déchèterie de Saint Yorre Avenue des Sources  Saint-Yorre 03270,"Av. des Sources, 03270 Saint-Yorre, France",46.0754148,3.4598554,True,True,False
Déchèterie de Saint-julien-chapteuil,Déchèterie de Saint-julien-chapteuil les Fromentaux  Saint-Julien-Chapteuil 43260,"Fromentaux, 43260 Saint-Julien-Chapteuil, France",45.042319,4.0627125,True,True,False
Déchèterie de Saint-vincent,Déchèterie de Saint-vincent Saint Vincent  Saint-Vincent 43800,"2 D103, 43800 Saint-Vincent, France",45.1524925,3.9207143,True,True,False
Déchèterie de Sanssac l'Eglise,Déchèterie de Sanssac l'Eglise Zone Artisanale de la Fataïre  Sanssac-l'Église 43320,"43320 Sanssac-l'Église, France",45.052083,3.779194,True,True,False
Déchèterie de Sauxillanges,Déchèterie de Sauxillanges Chemin des Rochettes  Sauxillanges 63490,"Chem. des Rochettes, 63490 Sauxillanges, France",45.5543678,3.3664915,True,True,False
Déchèterie de St Ours les Roches,Déchèterie de St Ours les Roches Chantesserre  Saint-Ours 63230,"Saint Ours les Roches, 63230 Saint-Ours, France",45.850441,2.893284,True,True,False
Déchèterie de Theix Saint-genès,Déchèterie de Theix Saint-genès Route de Nadaillat Theix Saint-Genès-Champanelle 63122,"Rte de Nadaillat, 63122 Saint-Gènes-Champanelle, France",45.7044865,3.021866,True,True,True
Déchèterie de Varennes,Déchèterie de Varennes la Pepie  Varennes-sur-Allier 03150,"La Pépie, 03150 Varennes-sur-Allier, France",46.302172,3.411119,True,True,False
Déchèterie de Vic le Comte,Déchèterie de Vic le Comte Les Meules Route de Clermont Ferrrand Vic-le-Comte 63270,"Les Meules, 63270 Vic-le-Comte, France",45.6457113,3.2307438,True,True,False
Déchèterie de la Bourboule,Déchèterie de la Bourboule Route de Charlannes  La Bourboule 63150,"Charlannes, 63150 La Bourboule, France",45.578809,2.7361357,True,True,False
Déchèterie de la Buisse,Déchèterie de la Buisse les Thermes Rn 75 Site écologique de la Buisse La Buisse 38500,"8J99+3F, 38500 La Buisse, France",45.3177233,5.6186757,True,True,False
Déchèterie de la Chapelle-d'abondance,Déchèterie de la Chapelle-d'abondance Miolène  La Chapelle-d'Abondance 74360,"Miolène, 74360 Abondance, France",46.292668,6.761953,True,True,False
Déchèterie de la Planove Ardres-sur-couze,Déchèterie de la Planove Ardres-sur-couze la Planove  Ardes 63420,"62610 Ardres, France",50.853961,1.976552,True,True,False
Déchèterie de le Donjon,Déchèterie de le Donjon Rue du Stade  Le Donjon 03130,"Rue du Stade, 03130 Le Donjon, France",46.3564503,3.7858125,True,True,False
Déchèterie du Pont d'Orgon,Déchèterie du Pont d'Orgon Za du Pont d'Orgon  Laroquebrou 15150,"Le Pont d'Orgon, 15150 Laroquebrou, France",44.975544,2.224657,True,True,False
Déchèterie du Puy-en-velay,Déchèterie du Puy-en-velay la Pépinière  Le Puy-en-Velay 43000,"La Pépinière, 43000 Le Puy-en-Velay, France",45.00448799999999,3.880884999999999,True,True,False
Déchèterie du Teil,Déchèterie du Teil Avenue de l'Euorpe Unie Avenue de l'Europe Le Teil 07400,"41 Av. de l'Europe Unie, 07400 Le Teil, France",44.54337820000001,4.6888502,True,True,False
Déchèterie du Tronget,Déchèterie du Tronget Rue du Silo  Tronget 03240,"Rue du Silo, 03240 Tronget, France",46.4237289,3.0765466,True,True,False
Déchèterie la Boisse,Déchèterie la Boisse Rue de la Plaine  La Boisse 01120,"1064 Chem. de la Plaine, 01120 La Boisse, France",45.8377761,5.0625882,True,True,True
Déchèterie la Chambre,Déchèterie la Chambre le Bugeon le Bugeon La Chambre 73130,"La Chambre, France",45.358463,6.301654,True,True,True
Déchèterie la Chapelle-de-la-tour,Déchèterie la Chapelle-de-la-tour le Plateau Chemin Leva La Chapelle-de-la-Tour 38110,"Chem. du Leva, 38110 La Chapelle-de-la-Tour, France",45.5893058,5.45928,True,True,False
Déchèterie la Chapelle-en-vercors,Déchèterie la Chapelle-en-vercors les Drevets Déchèterie Intercommunaleles Drevets La Chapelle-en-Vercors 26420,"Les Drevets, 26420 La Chapelle-en-Vercors, France",44.9754714,5.3987991,True,True,False
Déchèterie la Motte-chalancon,Déchèterie la Motte-chalancon la Rivière  La Motte-Chalancon 26470,"F9X9+22, 26470 La Motte-Chalancon, France",44.49758560000001,5.3675193,True,True,False
Déchèterie le Cheylard,Déchèterie le Cheylard Zi la Palisse Allée des Vergers Zi la Palisse Le Cheylard 07160,"78 All. des Vergers, 07160 Le Cheylard, France",44.9124962,4.441660700000001,True,True,True
Déchèterie le Cheylas,Déchèterie le Cheylas les Merciers Route de la Buissière Le Cheylas 38570,"Rte de la Buissière, ZI, Rue des Lauriers, 38570 Le Cheylas, France",45.3949082,5.9943938,True,True,False
Déchèterie le Pin,Déchèterie le Pin Vie Croisee  Le Pin* 38730,"38690 Oyeu, France",45.4430014,5.500619599999999,True,True,False
Déchèterie les Abrets,Déchèterie les Abrets la Bruyère Netrin Est Les Abrets* 38490,"Nétrin, 38490 Les Abrets en Dauphiné, France",45.548207,5.583729,True,True,False
Déchèterie les Allues,Déchèterie les Allues le Raffort /méribel  Les Allues 73550,"Méribel, 73550 Les Allues, France",45.3968826,6.5651736,True,True,False
Déchèterie les Ancizes-comps,Déchèterie les Ancizes-comps Fougeres  Les Ancizes-Comps 63770,"Rue des Fougères, 63770 Les Ancizes-Comps, France",45.9293862,2.8209865,True,True,False
Déchèterie les Avenières,Déchèterie les Avenières Za le Bert le Bert Les Avenières* 38630,"Rue Jacquard, 38630 Les Avenières Veyrins-Thuellin, France",45.6247456,5.5846355,True,True,False
Mini Déchèterie Saint-sauves-d'auvergne,Mini Déchèterie Saint-sauves-d'auvergne 4 Route de Tulle  Saint-Sauves-d'Auvergne 63950,"4 Rte de Tulle, 63760 Bourg-Lastic, France",45.6483344,2.5576918,True,True,True
